[{"OBJECT_NAME":"STARLINK-30073","OBJECT_ID":"2023-079T","EPOCH":"2026-03-09T22:00:01.999584","MEAN_MOTION":15.27575359,"ECCENTRICITY":0.00020534,"INCLINATION":43.0005,"RA_OF_ASC_NODE":291.0924,"ARG_OF_PERICENTER":288.9142,"MEAN_ANOMALY":240.4544,"EPHEMERIS_TYPE":0,"CLASSIFICATION_TYPE":"U","NORAD_CAT_ID":56840,"ELEMENT_SET_NO":999,"REV_AT_EPOCH":574,"BSTAR":0.00066101027,"MEAN_MOTION_DOT":0.0001797,"MEAN_MOTION_DDOT":0},{"OBJECT_NAME":"STARLINK-32502","OBJECT_ID":"2024-222C","EPOCH":"2026-03-09T12:46:37.798752","MEAN_MOTION":15.27597575,"ECCENTRICITY":0.0002243,"INCLINATION":43.0018,"RA_OF_ASC_NODE":137.1814,"ARG_OF_PERICENTER":283.9837,"MEAN_ANOMALY":76.0766,"EPHEMERIS_TYPE":0,"CLASSIFICATION_TYPE":"U","NORAD_CAT_ID":62116,"ELEMENT_SET_NO":999,"REV_AT_EPOCH":7278,"BSTAR":0.00089995,"MEAN_MOTION_DOT":0.00024599,"MEAN_MOTION_DDOT":0}]
